QIANFAN-1               
1 60379U 24140A   25205.74707246  .00000120  00000+0  16808-3 0  9995
2 60379  88.9845 313.8463 0015590 259.7154 100.2240 13.50953318 48302
QIANFAN-2               
1 60380U 24140B   25205.77589546  .00000126  00000+0  17607-3 0  9995
2 60380  88.9830 313.7022 0011542 226.7777 133.2411 13.50959751 48376
QIANFAN-3               
1 60381U 24140C   25205.78405286  .00000131  00000+0  18428-3 0  9993
2 60381  88.9823 313.8444 0012318 241.3864 118.6048 13.50957920 48289
QIANFAN-4               
1 60382U 24140D   25205.68535867  .00000121  00000+0  16894-3 0  9996
2 60382  88.9848 313.7169 0011686 230.1144 129.8981 13.50953352 48380
QIANFAN-5               
1 60383U 24140E   25205.80886200  .00000121  00000+0  16936-3 0  9998
2 60383  88.9823 313.8676 0013341 254.5580 105.4097 13.50956406 48271
QIANFAN-6               
1 60384U 24140F   25205.75525036  .00000115  00000+0  15950-3 0  9998
2 60384  88.9850 313.5819 0011637 236.6414 123.3623 13.50953041 48468
QIANFAN-7               
1 60385U 24140G   25205.71503798  .00000576  00000+0  22844-3 0  9997
2 60385  88.9852 310.2658 0016937 139.0714 221.1755 14.27486220 50273
QIANFAN-8               
1 60386U 24140H   25205.68952903  .00000115  00000+0  16031-3 0  9990
2 60386  88.9851 313.8235 0015015 240.7860 119.1790 13.50956951 48338
